[{"OBJECT_NAME":"STARLINK-1828","OBJECT_ID":"2020-073BH","EPOCH":"2026-03-09T17:33:50.808384","MEAN_MOTION":15.53474496,"ECCENTRICITY":0.00015775,"INCLINATION":53.0554,"RA_OF_ASC_NODE":236.2202,"ARG_OF_PERICENTER":58.8994,"MEAN_ANOMALY":301.217,"EPHEMERIS_TYPE":0,"CLASSIFICATION_TYPE":"U","NORAD_CAT_ID":46725,"ELEMENT_SET_NO":999,"REV_AT_EPOCH":29721,"BSTAR":0.00076646935,"MEAN_MOTION_DOT":0.00049315,"MEAN_MOTION_DDOT":0},{"OBJECT_NAME":"COSMOS 2251 DEB","OBJECT_ID":"1993-036NK","EPOCH":"2026-03-09T04:49:23.803680","MEAN_MOTION":15.49870596,"ECCENTRICITY":0.00205017,"INCLINATION":73.9617,"RA_OF_ASC_NODE":120.3452,"ARG_OF_PERICENTER":289.1634,"MEAN_ANOMALY":70.7359,"EPHEMERIS_TYPE":0,"CLASSIFICATION_TYPE":"U","NORAD_CAT_ID":34313,"ELEMENT_SET_NO":999,"REV_AT_EPOCH":90388,"BSTAR":0.0064327627,"MEAN_MOTION_DOT":0.00379566,"MEAN_MOTION_DDOT":0}]
